{
  "type": "FeatureCollection",
  "features": [
    {
      "type": "Feature",
      "properties": {
        "norad_id": 66174,
        "name": "HTV-X1",
        "group": "stations",
        "lat": 21.641193836360923,
        "lon": 161.43925720984254,
        "alt_km": 417.51036651468075,
        "timestamp": "2025-12-12T14:39:16.790884+00:00",
        "meta_object_name": "HTV-X1",
        "meta_object_id": "2025-241A",
        "meta_epoch": "2025-12-12T03:41:57.165504",
        "meta_mean_motion": 15.49529746,
        "meta_eccentricity": 0.00032837,
        "meta_inclination": 51.6307,
        "meta_ra_of_asc_node": 145.3792,
        "meta_arg_of_pericenter": 237.6977,
        "meta_mean_anomaly": 122.3694,
        "meta_ephemeris_type": 0,
        "meta_classification_type": "U",
        "meta_norad_cat_id": 66174,
        "meta_element_set_no": 999,
        "meta_rev_at_epoch": 51,
        "meta_bstar": 0.00026408062,
        "meta_mean_motion_dot": 0.00014398,
        "meta_mean_motion_ddot": 0,
        "tle_line1": "1 66174U 25241A   25346.15413386  .00014398  00000+0  26408-3 0  9996",
        "tle_line2": "2 66174  51.6307 145.3792 0003283 237.6977 122.3694 15.49529746   511"
      },
      "geometry": {
        "type": "Point",
        "coordinates": [
          161.43925720984254,
          21.641193836360923
        ]
      }
    },
    {
      "type": "Feature",
      "properties": {
        "norad_id": 66515,
        "name": "SZ-21 MODULE",
        "group": "stations",
        "lat": 26.3017288456215,
        "lon": 50.85490365005512,
        "alt_km": 379.5250306314374,
        "timestamp": "2025-12-12T14:39:16.790894+00:00",
        "meta_object_name": "SZ-21 MODULE",
        "meta_object_id": "2025-246C",
        "meta_epoch": "2025-12-12T03:44:14.440416",
        "meta_mean_motion": 15.62436812,
        "meta_eccentricity": 0.00063303,
        "meta_inclination": 41.4775,
        "meta_ra_of_asc_node": 19.6084,
        "meta_arg_of_pericenter": 257.16,
        "meta_mean_anomaly": 102.8532,
        "meta_ephemeris_type": 0,
        "meta_classification_type": "U",
        "meta_norad_cat_id": 66515,
        "meta_element_set_no": 999,
        "meta_rev_at_epoch": 435,
        "meta_bstar": 0.00037241504,
        "meta_mean_motion_dot": 0.00033863,
        "meta_mean_motion_ddot": 0,
        "tle_line1": "1 66515U 25246C   25346.15572269  .00033863  00000+0  37242-3 0  9992",
        "tle_line2": "2 66515  41.4775  19.6084 0006330 257.1600 102.8532 15.62436812  4355"
      },
      "geometry": {
        "type": "Point",
        "coordinates": [
          50.85490365005512,
          26.3017288456215
        ]
      }
    },
    {
      "type": "Feature",
      "properties": {
        "norad_id": 66645,
        "name": "SHENZHOU-22",
        "group": "stations",
        "lat": 27.68065041092092,
        "lon": 161.04792213299208,
        "alt_km": 387.13245235824706,
        "timestamp": "2025-12-12T14:39:16.790903+00:00",
        "meta_object_name": "SHENZHOU-22",
        "meta_object_id": "2025-272A",
        "meta_epoch": "2025-12-12T03:18:59.276448",
        "meta_mean_motion": 15.59138453,
        "meta_eccentricity": 0.0008469,
        "meta_inclination": 41.4684,
        "meta_ra_of_asc_node": 20.3596,
        "meta_arg_of_pericenter": 25.2431,
        "meta_mean_anomaly": 334.882,
        "meta_ephemeris_type": 0,
        "meta_classification_type": "U",
        "meta_norad_cat_id": 66645,
        "meta_element_set_no": 999,
        "meta_rev_at_epoch": 26357,
        "meta_bstar": 0.00037752271,
        "meta_mean_motion_dot": 0.00030211,
        "meta_mean_motion_ddot": 0,
        "tle_line1": "1 66645U 25272A   25346.13818607  .00030211  00000+0  37752-3 0  9992",
        "tle_line2": "2 66645  41.4684  20.3596 0008469  25.2431 334.8820 15.59138453263570"
      },
      "geometry": {
        "type": "Point",
        "coordinates": [
          161.04792213299208,
          27.68065041092092
        ]
      }
    },
    {
      "type": "Feature",
      "properties": {
        "norad_id": 66664,
        "name": "SOYUZ-MS 28",
        "group": "stations",
        "lat": 21.64119518284252,
        "lon": 161.43925850889977,
        "alt_km": 417.51036633570857,
        "timestamp": "2025-12-12T14:39:16.790912+00:00",
        "meta_object_name": "SOYUZ-MS 28",
        "meta_object_id": "2025-275A",
        "meta_epoch": "2025-12-12T03:41:57.165504",
        "meta_mean_motion": 15.49529746,
        "meta_eccentricity": 0.00032837,
        "meta_inclination": 51.6307,
        "meta_ra_of_asc_node": 145.3792,
        "meta_arg_of_pericenter": 237.6977,
        "meta_mean_anomaly": 122.3694,
        "meta_ephemeris_type": 0,
        "meta_classification_type": "U",
        "meta_norad_cat_id": 66664,
        "meta_element_set_no": 999,
        "meta_rev_at_epoch": 128,
        "meta_bstar": 0.00026408062,
        "meta_mean_motion_dot": 0.00014398,
        "meta_mean_motion_ddot": 0,
        "tle_line1": "1 66664U 25275A   25346.15413386  .00014398  00000+0  26408-3 0  9997",
        "tle_line2": "2 66664  51.6307 145.3792 0003283 237.6977 122.3694 15.49529746  1280"
      },
      "geometry": {
        "type": "Point",
        "coordinates": [
          161.43925850889977,
          21.64119518284252
        ]
      }
    },
    {
      "type": "Feature",
      "properties": {
        "norad_id": 66906,
        "name": "1998-067XS",
        "group": "stations",
        "lat": 41.14095348043158,
        "lon": -173.1404946468318,
        "alt_km": 411.57131652913995,
        "timestamp": "2025-12-12T14:39:16.790921+00:00",
        "meta_object_name": "1998-067XS",
        "meta_object_id": "1998-067XS",
        "meta_epoch": "2025-12-11T19:50:50.396352",
        "meta_mean_motion": 15.50491702,
        "meta_eccentricity": 0.00036759,
        "meta_inclination": 51.6297,
        "meta_ra_of_asc_node": 146.9447,
        "meta_arg_of_pericenter": 198.3211,
        "meta_mean_anomaly": 161.7647,
        "meta_ephemeris_type": 0,
        "meta_classification_type": "U",
        "meta_norad_cat_id": 66906,
        "meta_element_set_no": 999,
        "meta_rev_at_epoch": 147,
        "meta_bstar": 0.00060264305,
        "meta_mean_motion_dot": 0.00034698,
        "meta_mean_motion_ddot": 0,
        "tle_line1": "1 66906U 98067XS  25345.82697218  .00034698  00000+0  60264-3 0  9999",
        "tle_line2": "2 66906  51.6297 146.9447 0003675 198.3211 161.7647 15.50491702  1478"
      },
      "geometry": {
        "type": "Point",
        "coordinates": [
          -173.1404946468318,
          41.14095348043158
        ]
      }
    },
    {
      "type": "Feature",
      "properties": {
        "norad_id": 66907,
        "name": "1998-067XT",
        "group": "stations",
        "lat": 48.01591457077774,
        "lon": -155.28499631660415,
        "alt_km": 408.96948268794677,
        "timestamp": "2025-12-12T14:39:16.790930+00:00",
        "meta_object_name": "1998-067XT",
        "meta_object_id": "1998-067XT",
        "meta_epoch": "2025-12-09T12:07:37.114752",
        "meta_mean_motion": 15.50864429,
        "meta_eccentricity": 0.00048036,
        "meta_inclination": 51.6307,
        "meta_ra_of_asc_node": 158.4423,
        "meta_arg_of_pericenter": 208.5081,
        "meta_mean_anomaly": 151.5646,
        "meta_ephemeris_type": 0,
        "meta_classification_type": "U",
        "meta_norad_cat_id": 66907,
        "meta_element_set_no": 999,
        "meta_rev_at_epoch": 111,
        "meta_bstar": 0.0012921241,
        "meta_mean_motion_dot": 0.00076342,
        "meta_mean_motion_ddot": 0,
        "tle_line1": "1 66907U 98067XT  25343.50529068  .00076342  00000+0  12921-2 0  9998",
        "tle_line2": "2 66907  51.6307 158.4423 0004803 208.5081 151.5646 15.50864429  1113"
      },
      "geometry": {
        "type": "Point",
        "coordinates": [
          -155.28499631660415,
          48.01591457077774
        ]
      }
    },
    {
      "type": "Feature",
      "properties": {
        "norad_id": 66908,
        "name": "1998-067XU",
        "group": "stations",
        "lat": 48.78156874203056,
        "lon": -152.22706359242065,
        "alt_km": 408.4495159900662,
        "timestamp": "2025-12-12T14:39:16.790940+00:00",
        "meta_object_name": "1998-067XU",
        "meta_object_id": "1998-067XU",
        "meta_epoch": "2025-12-11T19:47:12.664032",
        "meta_mean_motion": 15.51346926,
        "meta_eccentricity": 0.00046963,
        "meta_inclination": 51.6299,
        "meta_ra_of_asc_node": 146.928,
        "meta_arg_of_pericenter": 220.0254,
        "meta_mean_anomaly": 140.039,
        "meta_ephemeris_type": 0,
        "meta_classification_type": "U",
        "meta_norad_cat_id": 66908,
        "meta_element_set_no": 999,
        "meta_rev_at_epoch": 147,
        "meta_bstar": 0.0013269788,
        "meta_mean_motion_dot": 0.00079814,
        "meta_mean_motion_ddot": 0,
        "tle_line1": "1 66908U 98067XU  25345.82445213  .00079814  00000+0  13270-2 0  9990",
        "tle_line2": "2 66908  51.6299 146.9280 0004696 220.0254 140.0390 15.51346926  1474"
      },
      "geometry": {
        "type": "Point",
        "coordinates": [
          -152.22706359242065,
          48.78156874203056
        ]
      }
    }
  ]
}